#aV2013  9 29  0  0  0.00000000     288 DD+AD WGS84 FIT  NGA
## 1760      0.00000000   300.00000000 56564 0.0000000000000
+   31     1  2  3  4  5  6  7  8  9 10 11 12 13 14 15 16 17
+         18 19 20 21 22 23 24 25 26 27 28 29 31 32  0  0  0
+          0  0  0  0  0  0  0  0  0  0  0  0  0  0  0  0  0
+          0  0  0  0  0  0  0  0  0  0  0  0  0  0  0  0  0
+          0  0  0  0  0  0  0  0  0  0  0  0  0  0  0  0  0
++         2  2  2  2  2  2  2  2  2  2  2  2  2  2  2  2  2
++         2  2  2  2  2  2  2  2  2  2  2  2  2  2  2  0  0
++         0  0  0  0  0  0  0  0  0  0  0  0  0  0  0  0  0
++         0  0  0  0  0  0  0  0  0  0  0  0  0  0  0  0  0
++         0  0  0  0  0  0  0  0  0  0  0  0  0  0  0  0  0
%c cc cc ccc ccc cccc cccc cccc cccc ccccc ccccc ccccc ccccc
%c cc cc ccc ccc cccc cccc cccc cccc ccccc ccccc ccccc ccccc
%f  0.0000000  0.000000000  0.00000000000  0.000000000000000
%f  0.0000000  0.000000000  0.00000000000  0.000000000000000
%i    0    0    0    0      0      0      0      0         0
%i    0    0    0    0      0      0      0      0         0
/*      NGA, ST. LOUIS,MO.                                  
/*   EPHEMERIS COMPUTED FROM  1 DAYS OF DATA
/*   EPOCHA SMOOTHER  
/* CCCCCCCCCCCCCCCCCCCCCCCCCCCCCCCCCCCCCCCCCCCCCCCCCCCCCCCCC
*  2013  9 29  6 25  0.00000000                                                 
P  1 -20539.968601  -9813.208042  13743.317324     79.763671                    
V  1  -9464.069753 -14825.345344 -24571.649834      0.039249                    
P  2  12518.565237  22638.642540   7323.416445    453.533975                    
V  2  -7969.878505  -4870.207009  29106.285452      0.017775                    
P  3 -12771.602080 -11843.826269 -20634.689482    265.834070                    
V  3  23534.997282  -8657.207081  -9670.136033      0.051288                    
P  4   1007.011824  20264.993088  16702.062295      1.362110                    
V  4 -15959.877532 -15267.640597  19408.335178      0.005309                    
P  5   4806.427390  20495.623079 -16133.142130   -399.421776                    
V  5  -9159.603668  18503.452933  20966.279481      0.002396                    
P  6  -5604.225800 -14655.819304 -21389.327795     77.307393                    
V  6  26582.576737  -6431.012215  -2171.790032      0.186795                    
P  7 -14930.969565   4591.715794 -21466.530844    263.872252                    
V  7 -16678.792234 -21619.891515   6642.765706      0.041834                    
P  8  -7112.794937  14054.173259 -21124.088397      8.758288                    
V  8 -15487.464757 -22353.167713 -10187.624099      0.002991                    
P  9  -6126.285971  15043.739571 -21520.666033    271.863232                    
V  9 -17077.942269 -19689.050488  -9255.504315      0.026670                    
P 10  -8321.331898  24935.667758  -1756.227977    -96.218774                    
V 10  -4159.085277    420.937660  31530.312988     -0.013444                    
P 11 -23510.506437 -12065.340794   3291.404638   -424.035032                    
V 11  -1377.640660  -6607.648154 -29560.048862     -0.034873                    
P 12  13916.142543   4652.021833  22087.133931    159.104119                    
V 12 -10504.884324  26056.010254   1326.630949      0.022206                    
P 13 -25527.056475   5385.488984  -5506.825253     75.217116                    
V 13  -6901.071127  -1556.852839  31065.230893     -0.037900                    
P 14  11360.008941 -14372.453963  19390.653577    214.638058                    
V 14  24184.279876  -1129.946792 -15321.839819     -0.009265                    
P 15  23140.265635   4622.068842 -12475.707742   -139.429639                    
V 15 -14904.467010   5731.096787 -25316.063442     -0.018790                    
P 16  -3274.308362 -20272.249485 -16682.746204   -245.683249                    
V 16   9797.843775 -18866.134077  21365.375457      0.008540                    
P 17 -12583.453423  14491.529012  18480.786036    -26.042276                    
V 17 -23084.390795   1450.861704 -17296.857415     -0.036780                    
P 18  15991.706215 -16701.667194 -12335.550800    276.615476                    
V 18  -2401.683358  16742.605531 -25273.499059      0.020352                    
P 19 -20525.130071  -8772.531672 -14830.994816   -407.656762                    
V 19  18270.729915  -3100.715103 -23218.343518     -0.027577                    
P 20 -16480.878800   1058.158867  20612.171116    125.723573                    
V 20   6982.979244 -25810.034074   6924.898249      0.026645                    
P 21  13405.465215  -8132.280906 -20880.128745   -321.051144                    
V 21  17811.242016  21569.499029   2454.583296     -0.018836                    
P 22  10512.152840 -24209.193221  -1942.585133    187.176139                    
V 22   2878.958805   3973.067979 -30897.495655      0.019892                    
P 23 -26212.612923    160.012642   5558.098889     43.872072                    
V 23   6380.691160  -3624.508981  30300.579470     -0.034465                    
P 24  20641.282458  13127.729208  10404.843685    -14.598786                    
V 24   6603.621419  11709.037215 -27807.436035     -0.006201                    
P 25  16652.767145 -10232.299336  17879.878440    152.304457                    
V 25  -6446.706818  21943.292129  18595.640679      0.039370                    
P 26  10927.223708  13348.697373 -20925.028400    213.266903                    
V 26 -24886.918897   2387.371681 -11531.332280      0.187493                    
P 27  -9214.805180 -13336.565095 -21053.316150    -42.095760                    
V 27  26189.228952  -5269.206944  -8115.829872     -0.043560                    
P 28 -13025.526059  22506.545303  -4334.285942    296.443591              E     
V 28    463.854541  -6637.410264 -31758.395424      0.031670                    
P 29  26121.961866  -4331.185139  -1741.779443    474.582522                    
V 29   2559.278168   2372.306240  31812.044521      0.031068                    
P 31  -2206.456520 -20714.310611  16477.054160    326.866114                    
V 31  14016.862209  15279.284194  21581.628452      0.008224                    
P 32 -11714.032012 -10993.391737  21322.178805   -544.991738                    
V 32  11724.791822 -24100.090885  -5482.335767      0.032187                    
EOF
